IRIDIUM 150             
1 43257U 18030J   25214.02693722  .00000023  00000+0  11133-5 0  9996
2 43257  86.3924  63.8900 0001986  93.9994 266.1429 14.34217643384435
IRIDIUM 143             
1 43258U 18030K   25213.51952974  .00000010  00000+0 -34036-5 0  9991
2 43258  86.3927  64.1827 0001960 100.4678 259.6739 14.34217483384271
IRIDIUM 161             
1 43478U 18047C   25213.48449809  .00000178  00000+0  46969-4 0  9998
2 43478  86.4474 222.0046 0002419  84.6201 275.5276 14.43279993379020
IRIDIUM 152             
1 43479U 18047D   25214.12016374 -.00000032  00000+0 -18361-4 0  9994
2 43479  86.3952 221.5998 0002135  86.3808 273.7632 14.34217384376768
IRIDIUM 147             
1 43480U 18047E   25214.12650788  .00000038  00000+0  66209-5 0  9998
2 43480  86.3949 221.5966 0002428  88.9558 271.1916 14.34217703376757
IRIDIUM 110             
1 43481U 18047F   25213.50493350  .00000041  00000+0  74298-5 0  9991
2 43481  86.3952 221.9398 0002533  80.1396 280.0086 14.34217702376651
IRIDIUM 162             
1 43482U 18047G   25213.47819993  .00000175  00000+0  46158-4 0  9994
2 43482  86.4473 221.9021 0002281  81.9420 278.2040 14.43278862379017
IRIDIUM 160             
1 43569U 18061A   25213.45076902  .00000054  00000+0  12354-4 0  9996
2 43569  86.4001 190.3800 0002400  82.5852 277.5616 14.34217506367547
